ONEWEB-0258             
1 48976U 21060K   24198.86835458  .00000024  00000+0  28178-4 0  9999
2 48976  87.9109   8.2170 0001720  91.6238 268.5090 13.16596735148725
ONEWEB-0259             
1 48977U 21060L   24199.16600091  .00000132  00000+0  31145-3 0  9994
2 48977  87.9109   8.1426 0001545  88.5717 271.5590 13.16596984148805
ONEWEB-0260             
1 48978U 21060M   24199.00532202  .00000125  00000+0  29224-3 0  9993
2 48978  87.9109   8.2036 0002406  86.9163 273.2243 13.16595865148753
ONEWEB-0261             
1 48979U 21060N   24199.20243790 -.00000024  00000+0 -95928-4 0  9992
2 48979  87.9112   8.1586 0001896  72.5746 287.5592 13.16593637148858
ONEWEB-0262             
1 48980U 21060P   24198.87945225  .00000003  00000+0 -26736-4 0  9995
2 48980  87.9111   8.1862 0001406  81.1257 279.0033 13.16594878147477
ONEWEB-0263             
1 48981U 21060Q   24198.91111577  .00000044  00000+0  80979-4 0  9999
2 48981  87.9112   8.1971 0001660  75.1534 284.9780 13.16593582147445
ONEWEB-0264             
1 48982U 21060R   24198.87233017  .00000071  00000+0  15123-3 0  9997
2 48982  87.9112   8.2159 0001798  88.5762 271.5575 13.16596073148733
ONEWEB-0266             
1 48984U 21060T   24199.19768688 -.00000077  00000+0 -23396-3 0  9991
2 48984  87.9108   8.1280 0001759  93.7591 266.3741 13.16593238148770
